NORAD_CAT_ID,OBJECT_NAME,OBJECT_TYPE,EPOCH,MEAN_MOTION,ECCENTRICITY,INCLINATION,RA_OF_ASC_NODE,ARG_OF_PERICENTER,MEAN_ANOMALY,BSTAR,MEAN_MOTION_DOT,MEAN_MOTION_DDOT,TLE_LINE0,TLE_LINE1,TLE_LINE2,SEMIMAJOR_AXIS,PERIOD,APOGEE,PERIGEE,DECAYED
49753.0,STARLINK-3200,PAYLOAD,2022-09-28 19:46:32,15.08855112,0.0001508,53.2169,35.9168,48.9527,311.1595,0.00013123,1.802e-05,0.0,0 STARLINK-3200,1 49753U 21115AF  22271.82398191  .00001802  00000-0  13123-3 0  9997,2 49753  53.2169  35.9168 0001508  48.9527 311.1595 15.08855112 45647,6917.834,95.437,540.742,538.656,0.0
49753.0,STARLINK-3200,PAYLOAD,2022-09-29 11:40:25,15.08818624,0.0001693,53.2192,32.9457,45.4351,314.6779,-0.00014403,-2.578e-05,0.0,0 STARLINK-3200,1 49753U 21115AF  22272.48641191 -.00002578  00000-0 -14403-3 0  9996,2 49753  53.2192  32.9457 0001693  45.4351 314.6779 15.08818624 46856,6917.946,95.439,540.982,538.64,0.0
49753.0,STARLINK-3200,PAYLOAD,2022-09-29 14:51:12,15.08819355,0.0001277,53.2165,32.3454,36.6786,323.4294,-0.00011267,-2.079e-05,0.0,0 STARLINK-3200,1 49753U 21115AF  22272.61889056 -.00002079  00000-0 -11267-3 0  9996,2 49753  53.2165  32.3454 0001277  36.6786 323.4294 15.08819355 45760,6917.943,95.439,540.692,538.925,0.0
49753.0,STARLINK-3200,PAYLOAD,2022-09-29 19:37:21,15.08821483,0.000168,53.2182,31.4575,55.4875,304.6276,-0.00010384,-1.939e-05,0.0,0 STARLINK-3200,1 49753U 21115AF  22272.81761271 -.00001939  00000-0 -10384-3 0  9999,2 49753  53.2182  31.4575 0001680  55.4875 304.6276 15.08821483 45798,6917.937,95.439,540.964,538.64,0.0
49753.0,STARLINK-3200,PAYLOAD,2022-09-30 11:31:11,15.08852307,0.000169,53.2175,28.4846,53.8179,306.297,0.00014342,1.996e-05,0.0,0 STARLINK-3200,1 49753U 21115AF  22273.47998864  .00001996  00000-0  14342-3 0  9991,2 49753  53.2175  28.4846 0001690  53.8179 306.2970 15.08852307 45896,6917.843000000003,95.437,540.877,538.539,0.0
49753.0,STARLINK-3200,PAYLOAD,2022-09-30 14:41:57,15.08851677,0.0001751999999999,53.2176,27.8913,47.0759,313.038,0.00026757,3.974e-05,0.0,0 STARLINK-3200,1 49753U 21115AF  22273.61247223  .00003974  00000-0  26757-3 0  9994,2 49753  53.2176  27.8913 0001752  47.0759 313.0380 15.08851677 47020,6917.845,95.437,540.922,538.498,0.0
49753.0,STARLINK-3200,PAYLOAD,2022-09-30 19:28:07,15.08845052,0.0001813,53.2171,26.9978,45.2523,314.8616,0.00018313,2.628e-05,0.0,0 STARLINK-3200,1 49753U 21115AF  22273.81119529  .00002628  00000-0  18313-3 0  9997,2 49753  53.2171  26.9978 0001813  45.2523 314.8616 15.08845052 45943,6917.865,95.437,540.984,538.476,0.0
49753.0,STARLINK-3200,PAYLOAD,2022-10-01 00:14:16,15.08842607,0.0001835,53.217,26.1059,47.2715,312.8431,0.00037906,5.75e-05,0.0,0 STARLINK-3200,1 49753U 21115AF  22274.00991752  .00005750  00000-0  37906-3 0  9993,2 49753  53.2170  26.1059 0001835  47.2715 312.8431 15.08842607 47086,6917.871999999999,95.437,541.007,538.4680000000002,0.0
49753.0,STARLINK-3200,PAYLOAD,2022-10-01 12:57:22,15.08834033,0.000184,53.217,23.7281,45.0685,315.0457,0.00030307,4.538e-05,0.0,0 STARLINK-3200,1 49753U 21115AF  22274.53984302  .00004538  00000-0  30307-3 0  9995,2 49753  53.2170  23.7281 0001840  45.0685 315.0457 15.08834033 47160,6917.899,95.438,541.0369999999998,538.491,0.0
49753.0,STARLINK-3200,PAYLOAD,2022-10-01 19:18:55,15.08826567,0.0001776,53.2173,22.5377,48.1482,311.9662,0.0002508999999999,3.706e-05,0.0,0 STARLINK-3200,1 49753U 21115AF  22274.80480739  .00003706  00000-0  25090-3 0  9999,2 49753  53.2173  22.5377 0001776  48.1482 311.9662 15.08826567 46090,6917.920999999999,95.438,541.015,538.558,0.0
49753.0,STARLINK-3200,PAYLOAD,2022-10-02 12:48:08,15.08858346,0.000179,53.2169,19.2664,41.5947,318.5181,0.00014072,1.953e-05,0.0,0 STARLINK-3200,1 49753U 21115AF  22275.53342878  .00001953  00000-0  14072-3 0  9991,2 49753  53.2169  19.2664 0001790  41.5947 318.5181 15.08858346 47311,6917.824000000001,95.436,540.928,538.451,0.0
49753.0,STARLINK-3200,PAYLOAD,2022-10-02 17:34:17,15.08850051,0.0001838,53.2172,18.375,55.1352,304.9812,4.7949e-05,4.75e-06,0.0,0 STARLINK-3200,1 49753U 21115AF  22275.73215264  .00000475  00000-0  47949-4 0  9999,2 49753  53.2172  18.3750 0001838  55.1352 304.9812 15.08850051 47343,6917.85,95.437,540.986,538.443,0.0
49753.0,STARLINK-3200,PAYLOAD,2022-10-02 19:09:40,15.08852505,0.0001792,53.2169,18.0765,51.4923,308.6229,8.8396e-05,1.119e-05,0.0,0 STARLINK-3200,1 49753U 21115AF  22275.79839100  .00001119  00000-0  88396-4 0  9993,2 49753  53.2169  18.0765 0001792  51.4923 308.6229 15.08852505 46241,6917.842,95.437,540.947,538.467,0.0
49753.0,STARLINK-3200,PAYLOAD,2022-10-02 23:55:51,15.08818011,9.32e-05,53.2169,17.1835,16.392,343.7102,-0.00043525,-7.204e-05,0.0,0 STARLINK-3200,1 49753U 21115AF  22275.99712565 -.00007204  00000-0 -43525-3 0  9997,2 49753  53.2169  17.1835 0000932  16.3920 343.7102 15.08818011 47381,6917.948,95.439,540.457,539.168,0.0
49753.0,STARLINK-3200,PAYLOAD,2022-10-03 11:03:34,15.0882188,0.0002222,53.2173,15.1041,56.9114,303.2092,-0.000104,-1.942e-05,0.0,0 STARLINK-3200,1 49753U 21115AF  22276.46081668 -.00001942  00000-0 -10400-3 0  9992,2 49753  53.2173  15.1041 0002222  56.9114 303.2092 15.08821880 46344,6917.936,95.439,541.3380000000002,538.264,0.0
49753.0,STARLINK-3200,PAYLOAD,2022-10-03 15:49:43,15.08835781,0.0001781,53.2164,14.2114,55.0573,305.0586,0.00019729,2.853e-05,0.0,0 STARLINK-3200,1 49753U 21115AF  22276.65953016  .00002853  00000-0  19729-3 0  9991,2 49753  53.2164  14.2114 0001781  55.0573 305.0586 15.08835781 46379,6917.893,95.438,540.99,538.526,0.0
49753.0,STARLINK-3200,PAYLOAD,2022-10-03 23:46:38,15.08854362,0.0001533,53.2168,12.7242,54.0238,306.0896,0.00059474,9.194e-05,0.0,0 STARLINK-3200,1 49753U 21115AF  22276.99072412  .00009194  00000-0  59474-3 0  9996,2 49753  53.2168  12.7242 0001533  54.0238 306.0896 15.08854362 47530,6917.8359999999975,95.437,540.762,538.641,0.0
49753.0,STARLINK-3200,PAYLOAD,2022-10-04 12:29:43,15.08873849,0.0001626,53.2165,10.3454,57.926,302.189,0.0010999,0.00017276,0.0,0 STARLINK-3200,1 49753U 21115AF  22277.52064161  .00017276  00000-0  10999-2 0  9996,2 49753  53.2165  10.3454 0001626  57.9260 302.1890 15.08873849 46504,6917.776999999999,95.435,540.7669999999998,538.5169999999998,0.0
49753.0,STARLINK-3200,PAYLOAD,2022-10-04 18:51:15,15.08876322,0.0001668,53.2166,9.1561,57.7193,302.396,0.00078842,0.00012294,0.0,0 STARLINK-3200,1 49753U 21115AF  22277.78559584  .00012294  00000-0  78842-3 0  9999,2 49753  53.2166   9.1561 0001668  57.7193 302.3960 15.08876322 46542,6917.769,95.435,540.788,538.48,0.0
49753.0,STARLINK-3200,PAYLOAD,2022-10-05 05:58:57,15.08867649,0.000226,53.2153,7.0735,66.1126,294.0102,0.00042719,6.522e-05,0.0,0 STARLINK-3200,1 49753U 21115AF  22278.24927305  .00006522  00000-0  42719-3 0  9992,2 49753  53.2153   7.0735 0002260  66.1126 294.0102 15.08867649 47725,6917.795999999999,95.436,541.224,538.097,0.0
49753.0,STARLINK-3200,PAYLOAD,2022-10-05 12:20:30,15.08834964,0.0001541,53.2174,5.8855,46.518,313.594,-0.00056537,-9.273e-05,0.0,0 STARLINK-3200,1 49753U 21115AF  22278.51423619 -.00009273  00000-0 -56537-3 0  9992,2 49753  53.2174   5.8855 0001541  46.5180 313.5940 15.08834964 46652,6917.896,95.438,540.827,538.695,0.0
49753.0,STARLINK-3200,PAYLOAD,2022-10-06 12:11:17,15.088400199999995,0.0001666999999999,53.2163,1.4241,53.1855,306.9290000000001,0.00074686,0.00011618,0.0,0 STARLINK-3200,1 49753U 21115AF  22279.50784367  .00011618  00000-0  74686-3 0  9991,2 49753  53.2163   1.4241 0001667  53.1855 306.9290 15.08840020 46804,6917.88,95.438,540.899,538.592,0.0
49753.0,STARLINK-3200,PAYLOAD,2022-10-06 16:57:26,15.08853708,0.000167,53.2166,0.5322,52.5715,307.5429,0.00080916,0.00012618,0.0,0 STARLINK-3200,1 49753U 21115AF  22279.70656003  .00012618  00000-0  80916-3 0  9992,2 49753  53.2166   0.5322 0001670  52.5715 307.5429 15.08853708 47943,6917.8380000000025,95.437,540.859,538.548,0.0
49753.0,STARLINK-3200,PAYLOAD,2022-10-07 08:51:17,15.08854946,0.0001733,53.2181,357.5568,52.1341,307.9808,5.8399e-05,6.42e-06,0.0,0 STARLINK-3200,1 49753U 21115AF  22280.36895543  .00000642  00000-0  58399-4 0  9995,2 49753  53.2181 357.5568 0001733  52.1341 307.9808 15.08854946 48040,6917.835,95.437,540.899,538.501,0.0
49753.0,STARLINK-3200,PAYLOAD,2022-10-07 10:26:40,15.08848213,0.000169,53.2178,357.2597,60.6976,299.4185,0.00034792,5.255e-05,0.0,0 STARLINK-3200,1 49753U 21115AF  22280.43519547  .00005255  00000-0  34792-3 0  9995,2 49753  53.2178 357.2597 0001690  60.6976 299.4185 15.08848213 46945,6917.855,95.437,540.889,538.5509999999998,0.0
49753.0,STARLINK-3200,PAYLOAD,2022-10-07 16:48:13,15.08849231,0.0001639,53.2178,356.0703,52.6306,307.4835,0.00021611,3.154e-05,0.0,0 STARLINK-3200,1 49753U 21115AF  22280.70015493  .00003154  00000-0  21611-3 0  9998,2 49753  53.2178 356.0703 0001639  52.6306 307.4835 15.08849231 46989,6917.852,95.437,540.851,538.5830000000002,0.0
49753.0,STARLINK-3200,PAYLOAD,2022-10-08 11:52:52,15.08830913,0.0001728,53.2178,352.5038,52.0128,308.1020000000001,-5.6658e-05,-1.189e-05,0.0,0 STARLINK-3200,1 49753U 21115AF  22281.49504876 -.00001189  00000-0 -56658-4 0  9991,2 49753  53.2178 352.5038 0001728  52.0128 308.1020 15.08830913 47102,6917.908,95.438,540.969,538.578,0.0
49753.0,STARLINK-3200,PAYLOAD,2022-10-08 16:39:01,15.08837281,0.0001712,53.2181,351.6108,53.5272,306.5878,3.1086e-06,-2.39e-06,0.0,0 STARLINK-3200,1 49753U 21115AF  22281.69376302 -.00000239  00000-0  31086-5 0  9997,2 49753  53.2181 351.6108 0001712  53.5272 306.5878 15.08837281 48247,6917.889,95.438,540.938,538.569,0.0
49753.0,STARLINK-3200,PAYLOAD,2022-10-08 21:25:10,15.08846037,0.000175,53.2183,350.7189,53.3208,306.7945,5.6033e-07,-2.79e-06,0.0,0 STARLINK-3200,1 49753U 21115AF  22281.89247751 -.00000279  00000-0  56033-6 0  9998,2 49753  53.2183 350.7189 0001750  53.3208 306.7945 15.08846037 48276,6917.861999999999,95.437,540.938,538.516,0.0
